#dP2020  4 13  0  0  0.00000000      96 __u+U ITR00 FIT  IAC
## 2101  86400.00000000   900.00000000 58952 0.0000000000000
+  114   C06C07C08C09C10C11C12C13C14C16C19C20C21C22C23C24C25
+        C26C27C28C29C30C32C33C34C35C36C37C38C39C40C43C44C45
+        C46E01E02E03E04E05E07E08E09E11E12E13E14E15E18E19E21
+        E24E25E26E27E30E31E33E36G01G02G03G04G05G06G07G08G09
+        G10G11G12G13G14G15G16G17G18G19G20G21G22G23G24G25G26
+        G27G28G29G30G31G32R01R02R03R04R05R07R08R09R11R12R13
+        R14R15R16R17R18R19R20R21R22R23R24R26  0  0  0  0  0
++         9  8  9  8  6  9  6  9  7  8  7  8  5  7  6  6  5
++         7  8  7  7  8  7  6  5  6  7  7 12 11 10  6  9 10
++         8  7  6  5  6  7  7  6  7  7  6  7  7  8  5  6  7
++         6  6  7  6  6  6  6  6  5  6  6  5  6  6  6  6  5
++         6  7  6  5  6  6  6  7  6  6  7  7  5  0  6  6  6
++         5  6  6  5  6  6  7  7  7  7  6  8  6  7  6  6  5
++         6  7  7  6  5  7  8  6  0  7  0  0  0  0  0  0  0
%c M  cc GPS ccc cccc cccc cccc cccc ccccc ccccc ccccc ccccc
%c cc cc ccc ccc cccc cccc cccc cccc ccccc ccccc ccccc ccccc
%f  0.0000000  0.000000000  0.00000000000  0.000000000000000
%f  0.0000000  0.000000000  0.00000000000  0.000000000000000
%i    0    0    0    0      0      0      0      0         0
%i    0    0    0    0      0      0      0      0         0
/* INFORMATION & ANALYSIS CENTER (IAC)      ULTRA-RAPID DATA
/* S/V CLOCKS ARE ALIGNED TO GNSS TIME                      
/* G:C1WC2W R:C1PC2P E:C1XC5X C:C2IC6I J:C1CC2S             
/* PCV:IGS14_2097 OL/AL:FES2004  NONE     YN ORB:CoN CLK:CoN
*  2020 04 13 15  0  0.00000000
PC06 -20183.968880  37244.384316   2090.786431    244.316060
PC07  -9546.193324  27106.969517 -30527.633457    866.207021
PC08 -22380.016486  19745.130460  29737.008894   -199.828319
PC09 -10356.773912  38721.839610 -13433.786886    469.858160
PC10   4385.326726  34755.105139 -23006.802004   -852.841452
PC11   3136.307332  17484.044916  21567.853207   -300.775820
PC12 -13239.307513  23050.623176   8495.306601    349.496536
PC13  -6388.194993  23312.302091  34607.229716    379.352084
PC14  10330.654078  25796.555476  -2164.989272    294.319420
PC16 -17041.059698  38622.965609  -1959.387495   -681.919583
PC19 -15128.387818 -20753.354749  10969.559471    381.196913
PC20  -4656.842271 -26845.944079  -6080.334339   -912.233916
PC21  -9047.806755  17076.772824  20147.499332   -280.659423
PC22 -17022.622033  -2538.276885  21983.722243   -836.753367
PC23  27326.807625   2060.553203   5266.647618   -913.381192
PC24   2609.103939  16707.836303 -22211.730635   -859.616182
PC25  21956.356237  12614.211527 -11753.953711   -581.737588
PC26 -16477.676117  11041.462352 -19623.153960    642.658758
PC27  19158.096250 -20265.836648    537.403204    312.236706
PC28  21475.004138  -6336.037169  16660.362609    303.240004
PC29 -11658.778115 -10801.450047 -22943.491060    214.392928
PC30   5059.877307 -22566.703624 -15600.212258    301.511411
PC32   8874.370540 -17203.286386 -20083.428828   -920.329582
PC33  15188.072232  20720.444271 -10860.396971   -871.083296
PC34  -4754.954739  22462.119015  15876.141476   -629.732043
PC35 -21261.719896   6911.352630 -16725.628990   -893.368516
PC36 -21476.945106 -13227.062130  11964.299846   -822.070750
PC37  17351.047789 -10296.536264  19299.147437   -845.438844
PC38 -17935.966442  22898.488320  30510.129381     72.149617
PC39 -13579.257161  39858.997909  -3061.749278 999999.999999
PC40   1903.890526  32874.918362 -26249.412579     34.523132
PC43  11449.622899  11198.303146  22849.856556   -148.469226
PC44 -18619.976062  20801.418003   -729.836671 999999.999999
PC45 -27325.562488  -2015.793051  -5242.475144 999999.999999
PC46  -3129.383250 -16612.794815  22202.848334    887.704479
PE01 -25498.936830  -8776.208492 -12203.970274   -835.138730
PE02  25495.288894   8727.542360  12258.475030    126.183252
PE03  17013.353560   1975.397192 -24137.294921   -287.498442
PE04 -14490.223307  19215.338801  17241.807844   -504.752046
PE05   9586.752369  22280.023033 -16959.326802   -388.959506
PE07   3369.274956 -29413.285524    -50.761916   -367.661362
PE08  14171.037126 -19519.695376 -17158.281812   6192.896408
PE09  -3131.302277  29425.978055     -8.672688   6094.241290
PE11  -8171.495399  18978.752633  21201.517287   2250.487807
PE12 -24821.585553  15156.149900   5586.969933   5856.075300
PE13   8361.778003 -18968.608652 -21116.623416    400.032510
PE14  -3472.826256  23144.112389   8471.451909   -976.266416
PE15  24653.046710 -15319.586643  -5769.878229    870.602987
PE18  -6410.798208 -23911.571239 -20073.962284  -1074.800022
PE19 -16546.275356  -4392.434381  24155.438610   -529.740894
PE21 -20542.335357 -20355.312911   6300.915000   -593.301063
PE24   3149.606205  20226.814564 -21404.991816   5509.355829
PE25  20466.019484  20400.372099  -6423.579242   -509.000713
PE26 -13195.738922 -11490.142867 -23868.779735   3306.828373
PE27  -3434.687352 -20212.965636  21345.247875    241.695141
PE30  15899.874268  -7921.880833  23666.481413   3989.222805
PE31 -15600.723232   8202.783143 -23778.168790   -472.272332
PE33 -26482.569679   2689.728663 -12952.513251   -468.453166
PE36  12825.964730  11496.778866  24078.208216    573.447166
PG01  -5640.991915 -14156.443250 -21997.727725   -356.515890
PG02 -17324.143953  14222.133407  14839.121645   -438.807918
PG03 -11803.833388 -22893.200816  -6747.987067   -144.670839
PG04  -2670.524882 -21159.289273  15823.098383    -75.651309
PG05  -5878.046117  15717.310178  20409.217334    -10.797023
PG06 -24913.383270   7329.358417   5746.300969   -251.865854
PG07 -22273.065326  -6858.535622  13475.519417   -257.797094
PG08   5443.988959 -25152.071029  -5982.466865    -30.508514
PG09 -11271.995482 -11879.085118  20857.980482   -196.991020
PG10  19404.990639   5344.504532 -17361.289554   -309.024240
PG11   4277.675448 -19710.929272 -17914.352950   -306.294751
PG12   8970.112277  23696.327780  -8481.784893    129.680611
PG13 -13093.238828  23052.633682     61.868646      1.815761
PG14  17552.592534 -14791.017333 -12856.631535    -19.848299
PG15  -2145.887939  25460.551438  -6796.098825   -238.251416
PG16   6233.633190 -15543.648025  20280.984025   -146.170385
PG17 -16894.030657   5700.678220 -19249.651894    248.121569
PG18  19049.659281   9151.026520  16111.656606    154.943321
PG19 -18119.009653  12744.755367 -14945.561494   -172.592588
PG20  21744.999838  13369.689761  -7805.784004    527.811988
PG21  22225.152403   5593.305304  13966.459627    -14.712478
PG22  -5732.389626 -21717.974882 -14048.786438   -784.772682
PG23  -7844.412310 -17415.803678  18683.688942   -122.399473
PG24   4101.168426  15310.158803 -21516.497998    -11.662400
PG25  16914.442258  20623.265316   1136.016520     -3.392127
PG26  14296.695004  -6788.699945  21316.148019    186.761699
PG27  12448.432969 -22823.494448   4326.264793   -265.823006
PG28 -17960.792048  -5452.619703 -18149.051066    725.663649
PG29   8031.410982  14618.899164  20623.305104    -80.145594
PG30 -26494.831691    399.718501   3097.690219   -197.530916
PG31  24558.789877  -7829.150136   7281.530947    -35.781107
PG32  17144.693583  -6924.703650 -18936.355408    258.765848
PR01  -3047.494296  21645.183669  13140.751442     59.968938
PR02   6711.221222  23445.206233  -7530.830181    421.636184
PR03  11275.605946   9857.931366 -20616.317082     13.234221
PR04   9127.208371  -9228.176538 -21927.896414     45.448374
PR05   1974.322779 -23022.352084 -10767.873524     48.567718
PR07 -11334.121395  -9148.360471  20969.978868    -35.419750
PR08  -9294.976851   9222.637316  21950.656659    -51.611497
PR09 -17860.226159 -13606.635471  12180.619740    127.069928
PR11 -18338.066801   1837.783646 -17647.901492    -20.058844
PR12  -2790.802926  10627.238978 -22999.231324    122.246932
PR13  15100.131428  13747.075533 -15307.717826    -37.351721
PR14  23851.183141   8899.392491   1523.233917     50.121590
PR15  18839.030216  -1128.101857  17177.670448    106.324976
PR16   2261.501053 -10981.970728  22879.433276     -2.782803
PR17  15988.971770   -877.477138  19875.182684    317.007883
PR18  21208.734229 -12588.730301   6400.385995     31.895248
PR19  15840.968571 -17186.511642 -10209.970737    -88.498230
PR20   -843.099883 -11818.811690 -22573.176108   -409.059116
PR21 -16467.564762   1582.365529 -19407.504165   -117.766617
PR22 -21133.242161  13920.166913  -3700.157360      3.666356
PR23 -10658.659398  16967.723119  15783.212289    298.942396
PR24   3372.420750  10386.365634  23029.909343 999999.999999
PR26   3138.907887 -14187.846490 -20958.423891   -399.552390
EOF
